[{"OBJECT_NAME":"STARLINK-32746","OBJECT_ID":"2025-014L","EPOCH":"2026-03-09T07:20:09.459456","MEAN_MOTION":15.2759143,"ECCENTRICITY":0.00024876,"INCLINATION":42.9997,"RA_OF_ASC_NODE":156.1243,"ARG_OF_PERICENTER":288.6677,"MEAN_ANOMALY":71.3904,"EPHEMERIS_TYPE":0,"CLASSIFICATION_TYPE":"U","NORAD_CAT_ID":62745,"ELEMENT_SET_NO":999,"REV_AT_EPOCH":6320,"BSTAR":0.0013102348,"MEAN_MOTION_DOT":0.00035983,"MEAN_MOTION_DDOT":0},{"OBJECT_NAME":"HERMES-2","OBJECT_ID":"2025-052AK","EPOCH":"2026-03-09T22:17:00.130272","MEAN_MOTION":15.28021069,"ECCENTRICITY":0.00063399,"INCLINATION":97.4004,"RA_OF_ASC_NODE":324.4926,"ARG_OF_PERICENTER":99.416,"MEAN_ANOMALY":260.7796,"EPHEMERIS_TYPE":0,"CLASSIFICATION_TYPE":"U","NORAD_CAT_ID":63243,"ELEMENT_SET_NO":999,"REV_AT_EPOCH":5485,"BSTAR":0.00034839454,"MEAN_MOTION_DOT":9.456e-5,"MEAN_MOTION_DDOT":0}]
